STARLINK-4097           
1 53265U 22086Z   26012.22156737 -.00000276  00000+0  77240-6 0  9994
2 53265  53.2195  87.6136 0001503  99.2486 260.8676 15.08837372192546
STARLINK-4058           
1 53266U 22086AA  26012.22525590 -.00001472  00000+0 -74419-4 0  9995
2 53266  53.2183  87.5989 0001213  57.3705 302.7404 15.08826272192548
STARLINK-4060           
1 53267U 22086AB  26012.61165358 -.00001954  00000+0 -10470-3 0  9992
2 53267  53.2195  85.8627 0001590 102.2015 257.9155 15.08837542192607
STARLINK-4109           
1 53268U 22086AC  26012.48285300 -.00000840  00000+0 -34713-4 0  9998
2 53268  53.2176  86.4414 0001210  96.2583 263.8547 15.08830609192584
STARLINK-4057           
1 53269U 22086AD  26012.53897412  .00005225  00000+0  34620-3 0  9994
2 53269  53.2178  76.1906 0001261  89.3405 270.7732 15.08834648192727
STARLINK-4122           
1 53272U 22086AG  26012.47641853 -.00001002  00000+0 -44930-4 0  9994
2 53272  53.2179  76.4724 0001152  93.0616 267.0508 15.08824363192710
STARLINK-4051           
1 53273U 22086AH  26012.59049122  .00000634  00000+0  57904-4 0  9992
2 53273  53.2187  75.9591 0001540  87.6956 272.4212 15.08837098192725
STARLINK-4050           
1 53274U 22086AJ  26012.20408566 -.00003181  00000+0 -18189-3 0  9995
2 53274  53.2176  77.6959 0001832 100.8659 259.2539 15.08832721192670
STARLINK-4179           
1 53275U 22086AK  26012.58681266 -.00001248  00000+0 -60332-4 0  9997
2 53275  53.2183  75.9768 0001314  93.8602 266.2540 15.08833063192728
STARLINK-4174           
1 53276U 22086AL  26012.46169441 -.00000541  00000+0 -15912-4 0  9990
2 53276  53.2181  76.5374 0001393  96.5836 263.5315 15.08829507192709
STARLINK-4178           
1 53277U 22086AM  26012.57945513  .00000007  00000+0  18519-4 0  9996
2 53277  53.2184  76.0381 0001351  94.3284 265.7862 15.08834334192720
STARLINK-4180           
1 53278U 22086AN  26012.45065183 -.00000920  00000+0 -39730-4 0  9994
2 53278  53.2172  76.5893 0001422  94.8034 265.3121 15.08829839192704
STARLINK-4169           
1 53280U 22086AQ  26012.76939130 -.00000039  00000+0  15653-4 0  9991
2 53280  53.2187  29.8303 0001286  89.2517 270.8622 15.08839022193390
STARLINK-4164           
1 53282U 22086AS  26012.57577183  .00000004  00000+0  18341-4 0  9996
2 53282  53.2178  76.0277 0001381  88.5416 271.5734 15.08832790192725
STARLINK-4175           
1 53283U 22086AT  26012.16729417  .00001143  00000+0  89896-4 0  9999
2 53283  53.2182  77.8621 0001384  88.9904 271.1247 15.08833713192666
STARLINK-4173           
1 53285U 22086AV  26012.55369701  .00000105  00000+0  24677-4 0  9993
2 53285  53.2190  76.1219 0001366  87.0787 273.0362 15.08828478192718
STARLINK-4165           
1 53286U 22086AW  26012.59781583  .00000246  00000+0  33560-4 0  9991
2 53286  53.2173  75.6174 0001392  97.9262 262.1888 15.08830823192721
STARLINK-4107           
1 53287U 22086AX  26012.54633723 -.00000637  00000+0 -21929-4 0  9991
2 53287  53.2185  76.1609 0000945 101.7053 258.4045 15.08830264192710
STARLINK-4162           
1 53288U 22086AY  26012.15991828  .00001606  00000+0  11894-3 0  9996
2 53288  53.2186  77.8947 0001402  94.8838 265.2315 15.08844255192651
STARLINK-4176           
1 53289U 22086AZ  26012.45665414 -.00001043  00000+0 -47489-4 0  9996
2 53289  53.2185  71.7042 0001320  91.2724 268.8419 15.08830374192767
STARLINK-4149           
1 53290U 22086BA  26012.74873757 -.00000416  00000+0 -80586-5 0  9990
2 53290  53.2184  75.2527 0001328  89.3485 270.7659 15.08831595192747
STARLINK-4166           
1 53291U 22086BB  26012.42348640  .00000791  00000+0  67817-4 0  9999
2 53291  53.2171  71.4999 0001380  90.5525 269.5626 15.08834254192769
STARLINK-4159           
1 53292U 22086BC  26012.16362974  .00001438  00000+0  10844-3 0  9993
2 53292  53.2183  78.0608 0002252  86.8258 273.2991 15.08841873192653
STARLINK-4148           
1 53293U 22086BD  26012.84533678 -.00000500  00000+0 -13319-4 0  9992
2 53293  53.2182  64.8059 0001187  95.9849 264.1278 15.08830088192898
STARLINK-4146           
1 53294U 22086BE  26012.53250882  .00000181  00000+0  29456-4 0  9994
2 53294  53.2185  66.0560 0001270  88.5195 271.5943 15.08840157192897
YAOGAN-35 03A           
1 53316U 22088A   26012.32658792  .00065383  00000+0  10908-2 0  9995
2 53316  35.0057   4.5649 0012837 351.2090   8.8408 15.50715628193651
YAOGAN-35 03B           
1 53318U 22088C   26012.67510863  .00008125  00000+0  34936-3 0  9990
2 53318  34.9885 107.5271 0012462  58.8371 301.3564 15.21859988192616
YAOGAN-35 03C           
1 53320U 22088E   26012.62879966  .00019625  00000+0  54602-3 0  9999
2 53320  34.9975  76.5911 0000681 185.0367 175.0345 15.35928070192935
COSMOS 2558             
1 53323U 22089A   26012.83338752  .00035998  00000+0  57335-3 0  9996
2 53323  97.2314 113.4203 0001903 237.0409 123.0662 15.53182211193569
TECMS                   
1 53346U 22090A   26012.86681281  .00004472  00000+0  20036-3 0  9995
2 53346  97.3348  85.2287 0002400  34.6023 325.5369 15.21739666191193
SBIRS GEO-6 (USA 336)   
1 53355U 22092A   26012.61880028 -.00000270  00000+0  00000+0 0  9998
2 53355   3.5267 315.1590 0002104 335.6451 183.0653  1.00271693 12675
KHAYYAM                 
1 53370U 22096A   26012.85651212  .00005351  00000+0  21920-3 0  9998
2 53370  97.3560 279.9057 0001312 102.4830 257.6555 15.24704528190917
STARLINK-4522           
1 53388U 22097A   26012.15440787  .00000051  00000+0  21268-4 0  9992
2 53388  53.2191  17.9169 0001365  84.0821 276.0327 15.08834711190310
STARLINK-4523           
1 53389U 22097B   26012.27952481 -.00000373  00000+0 -53361-5 0  9994
2 53389  53.2188  17.3557 0001383  81.5557 278.5592 15.08847316190158
STARLINK-4517           
1 53390U 22097C   26012.28320328  .00000388  00000+0  42475-4 0  9993
2 53390  53.2187  17.3384 0001380  85.8484 274.2666 15.08842404190305
STARLINK-4521           
1 53391U 22097D   26012.73953151  .00000125  00000+0  25953-4 0  9991
2 53391  53.2203  15.2910 0001469  85.2357 274.8803 15.08835862190228
STARLINK-4535           
1 53392U 22097E   26012.73216701  .00000439  00000+0  45699-4 0  9992
2 53392  53.2194  15.3246 0001448  85.9618 274.1540 15.08840606190228
STARLINK-4530           
1 53393U 22097F   26012.27217080 -.00000488  00000+0 -12586-4 0  9998
2 53393  53.2190  17.3889 0001318  87.3190 272.7953 15.08838537190151
STARLINK-4544           
1 53394U 22097G   26012.28407810 -.00001284  00000+0 -62614-4 0  9994
2 53394  53.2187   6.9475 0001296  82.1210 277.9929 15.08832225190309
STARLINK-4534           
1 53395U 22097H   26012.72944542  .00000828  00000+0  70080-4 0  9999
2 53395  53.2192  15.3468 0001456  89.6400 270.4758 15.08840021190067
STARLINK-4524           
1 53396U 22097J   26012.71376948 -.00000122  00000+0  10430-4 0  9999
2 53396  53.2194  15.4070 0001374  86.7761 273.3389 15.08837514190062
STARLINK-4515           
1 53397U 22097K   26011.99616743  .00000184  00000+0  29638-4 0  9996
2 53397  53.2189  18.6288 0001365  90.8546 269.2603 15.08839476189958
STARLINK-4512           
1 53398U 22097L   26012.70641638  .00000003  00000+0  18309-4 0  9991
2 53398  53.2191  15.4405 0001378  95.9667 264.1482 15.08832722190062
STARLINK-4528           
1 53399U 22097M   26012.71744813  .00001655  00000+0  12202-3 0  9991
2 53399  53.2193  15.3908 0001361  90.5862 269.5286 15.08840686190061
STARLINK-4520           
1 53400U 22097N   26012.69536675  .00000126  00000+0  25996-4 0  9993
2 53400  53.2185  15.4898 0001303  92.9307 267.1834 15.08835812190068
STARLINK-4525           
1 53401U 22097P   26012.71009664 -.00001198  00000+0 -57192-4 0  9995
2 53401  53.2185  15.4244 0001428  82.1061 278.0094 15.08825482190061
STARLINK-4499           
1 53402U 22097Q   26012.69168598 -.00000491  00000+0 -12786-4 0  9990
2 53402  53.2185  15.5044 0001368  86.0786 274.0363 15.08837049190068
STARLINK-4507           
1 53403U 22097R   26012.27317366 -.00001020  00000+0 -45991-4 0  9997
2 53403  53.2190  17.7303 0001565  89.0785 271.0386 15.08835572189999
STARLINK-4509           
1 53404U 22097S   26012.67517993 -.00002190  00000+0 -11962-3 0  9999
2 53404  53.2194   5.5134 0001650  90.9751 269.1430 15.08817380190199
STARLINK-4510           
1 53405U 22097T   26012.29057321 -.00001681  00000+0 -87545-4 0  9997
2 53405  53.2201  17.3066 0001455  93.2412 266.8747 15.08831776190007
STARLINK-4533           
1 53406U 22097U   26012.66316671  .00000432  00000+0  45246-4 0  9998
2 53406  53.2191   5.6317 0001492  89.0485 271.0678 15.08837207190195
STARLINK-4491           
1 53408U 22097W   26012.67421781 -.00000028  00000+0  16335-4 0  9999
2 53408  53.2201   5.5887 0001490  91.3924 268.7239 15.08830607190195
STARLINK-4490           
1 53409U 22097X   26012.66780750  .00001095  00000+0  86896-4 0  9996
2 53409  53.2201 355.8098 0001537  90.1054 270.0115 15.08833040190333
STARLINK-4492           
1 53410U 22097Y   26012.67053086 -.00000008  00000+0  17563-4 0  9993
2 53410  53.2184   5.5995 0001311  84.9119 275.2023 15.08834353190190
STARLINK-4497           
1 53411U 22097Z   26012.67789522 -.00000895  00000+0 -38175-4 0  9992
2 53411  53.2219   5.5701 0001594  92.7357 267.3818 15.08834169190198
STARLINK-4496           
1 53412U 22097AA  26012.26204552 -.00000442  00000+0 -97044-5 0  9992
2 53412  53.2174   7.4331 0001459  92.9080 267.2080 15.08838860190130
STARLINK-4500           
1 53413U 22097AB  26012.66684440 -.00001639  00000+0 -84874-4 0  9990
2 53413  53.2194   5.6169 0001281  93.6869 266.4270 15.08848087190198
STARLINK-4304           
1 53414U 22097AC  26011.99340714  .00000376  00000+0  41745-4 0  9994
2 53414  53.2181   8.6387 0001377  88.1493 271.9657 15.08837130190083
STARLINK-4479           
1 53415U 22097AD  26011.72476647 -.00000975  00000+0 -43182-4 0  9995
2 53415  53.2195   9.8448 0001321  93.9648 266.1495 15.08835393190024
